{
  "type": "FeatureCollection",
  "features": [
    {
      "type": "Feature",
      "properties": {
        "norad_id": 30080,
        "name": "FENGYUN 1C DEB",
        "group": "fengyun-1c-debris",
        "lat": -24.38299411851574,
        "lon": -31.781661113039082,
        "alt_km": 867.4545653856467,
        "timestamp": "2025-12-09T14:52:26.435505+00:00",
        "meta_object_name": "FENGYUN 1C DEB",
        "meta_object_id": "1999-025QH",
        "meta_epoch": "2025-12-09T05:04:58.057248",
        "meta_mean_motion": 14.10815671,
        "meta_eccentricity": 0.01338843,
        "meta_inclination": 98.6979,
        "meta_ra_of_asc_node": 323.8446,
        "meta_arg_of_pericenter": 70.5442,
        "meta_mean_anomaly": 355.53,
        "meta_ephemeris_type": 0,
        "meta_classification_type": "U",
        "meta_norad_cat_id": 30080,
        "meta_element_set_no": 999,
        "meta_rev_at_epoch": 97188,
        "meta_bstar": 0.00046717745,
        "meta_mean_motion_dot": 8.68e-06,
        "meta_mean_motion_ddot": 0,
        "tle_line1": "1 30080U 99025QH  25343.21178307  .00000868  00000+0  46718-3 0  9992",
        "tle_line2": "2 30080  98.6979 323.8446 0133884  70.5442 355.5300 14.10815671971888"
      },
      "geometry": {
        "type": "Point",
        "coordinates": [
          -31.781661113039082,
          -24.38299411851574
        ]
      }
    },
    {
      "type": "Feature",
      "properties": {
        "norad_id": 30081,
        "name": "FENGYUN 1C DEB",
        "group": "fengyun-1c-debris",
        "lat": -46.06055335450094,
        "lon": -10.640466912580536,
        "alt_km": 860.7437759109807,
        "timestamp": "2025-12-09T14:52:26.435515+00:00",
        "meta_object_name": "FENGYUN 1C DEB",
        "meta_object_id": "1999-025QJ",
        "meta_epoch": "2025-12-08T23:55:10.062336",
        "meta_mean_motion": 13.98269143,
        "meta_eccentricity": 0.0076076,
        "meta_inclination": 98.9222,
        "meta_ra_of_asc_node": 339.3716,
        "meta_arg_of_pericenter": 349.5573,
        "meta_mean_anomaly": 69.3728,
        "meta_ephemeris_type": 0,
        "meta_classification_type": "U",
        "meta_norad_cat_id": 30081,
        "meta_element_set_no": 999,
        "meta_rev_at_epoch": 96302,
        "meta_bstar": 0.00066361,
        "meta_mean_motion_dot": 9.27e-06,
        "meta_mean_motion_ddot": 0,
        "tle_line1": "1 30081U 99025QJ  25342.99664424  .00000927  00000+0  66361-3 0  9999",
        "tle_line2": "2 30081  98.9222 339.3716 0076076 349.5573  69.3728 13.98269143963021"
      },
      "geometry": {
        "type": "Point",
        "coordinates": [
          -10.640466912580536,
          -46.06055335450094
        ]
      }
    },
    {
      "type": "Feature",
      "properties": {
        "norad_id": 30082,
        "name": "FENGYUN 1C DEB",
        "group": "fengyun-1c-debris",
        "lat": -30.333722089986537,
        "lon": -83.91970568440759,
        "alt_km": 569.8798552850994,
        "timestamp": "2025-12-09T14:52:26.435526+00:00",
        "meta_object_name": "FENGYUN 1C DEB",
        "meta_object_id": "1999-025QK",
        "meta_epoch": "2025-12-08T18:24:08.098560",
        "meta_mean_motion": 15.14816618,
        "meta_eccentricity": 0.00696085,
        "meta_inclination": 98.8179,
        "meta_ra_of_asc_node": 269.8806,
        "meta_arg_of_pericenter": 179.7472,
        "meta_mean_anomaly": 180.3803,
        "meta_ephemeris_type": 0,
        "meta_classification_type": "U",
        "meta_norad_cat_id": 30082,
        "meta_element_set_no": 999,
        "meta_rev_at_epoch": 1233,
        "meta_bstar": 0.001561389,
        "meta_mean_motion_dot": 0.00030842,
        "meta_mean_motion_ddot": 0,
        "tle_line1": "1 30082U 99025QK  25342.76676040  .00030842  00000+0  15614-2 0  9995",
        "tle_line2": "2 30082  98.8179 269.8806 0069608 179.7472 180.3803 15.14816618 12335"
      },
      "geometry": {
        "type": "Point",
        "coordinates": [
          -83.91970568440759,
          -30.333722089986537
        ]
      }
    },
    {
      "type": "Feature",
      "properties": {
        "norad_id": 30086,
        "name": "FENGYUN 1C DEB",
        "group": "fengyun-1c-debris",
        "lat": 38.93168919414078,
        "lon": 10.084302879338741,
        "alt_km": 887.7930035735981,
        "timestamp": "2025-12-09T14:52:26.435536+00:00",
        "meta_object_name": "FENGYUN 1C DEB",
        "meta_object_id": "1999-025QP",
        "meta_epoch": "2025-12-09T01:08:34.975392",
        "meta_mean_motion": 14.03820018,
        "meta_eccentricity": 0.00617401,
        "meta_inclination": 98.9101,
        "meta_ra_of_asc_node": 16.804,
        "meta_arg_of_pericenter": 144.6893,
        "meta_mean_anomaly": 245.8078,
        "meta_ephemeris_type": 0,
        "meta_classification_type": "U",
        "meta_norad_cat_id": 30086,
        "meta_element_set_no": 999,
        "meta_rev_at_epoch": 96644,
        "meta_bstar": 0.0005593098,
        "meta_mean_motion_dot": 8.53e-06,
        "meta_mean_motion_ddot": 0,
        "tle_line1": "1 30086U 99025QP  25343.04762703  .00000853  00000+0  55931-3 0  9999",
        "tle_line2": "2 30086  98.9101  16.8040 0061740 144.6893 245.8078 14.03820018966449"
      },
      "geometry": {
        "type": "Point",
        "coordinates": [
          10.084302879338741,
          38.93168919414078
        ]
      }
    },
    {
      "type": "Feature",
      "properties": {
        "norad_id": 30087,
        "name": "FENGYUN 1C DEB",
        "group": "fengyun-1c-debris",
        "lat": -50.572052918008524,
        "lon": 26.278924092785747,
        "alt_km": 944.2425024902586,
        "timestamp": "2025-12-09T14:52:26.435546+00:00",
        "meta_object_name": "FENGYUN 1C DEB",
        "meta_object_id": "1999-025QQ",
        "meta_epoch": "2025-12-09T01:59:54.032064",
        "meta_mean_motion": 14.3569064,
        "meta_eccentricity": 0.02302398,
        "meta_inclination": 98.3809,
        "meta_ra_of_asc_node": 15.4283,
        "meta_arg_of_pericenter": 132.2457,
        "meta_mean_anomaly": 285.1926,
        "meta_ephemeris_type": 0,
        "meta_classification_type": "U",
        "meta_norad_cat_id": 30087,
        "meta_element_set_no": 999,
        "meta_rev_at_epoch": 98643,
        "meta_bstar": 0.00036587079,
        "meta_mean_motion_dot": 1.38e-05,
        "meta_mean_motion_ddot": 0,
        "tle_line1": "1 30087U 99025QQ  25343.08326426  .00001380  00000+0  36587-3 0  9994",
        "tle_line2": "2 30087  98.3809  15.4283 0230239 132.2457 285.1926 14.35690640986434"
      },
      "geometry": {
        "type": "Point",
        "coordinates": [
          26.278924092785747,
          -50.572052918008524
        ]
      }
    },
    {
      "type": "Feature",
      "properties": {
        "norad_id": 30088,
        "name": "FENGYUN 1C DEB",
        "group": "fengyun-1c-debris",
        "lat": -22.27406107123358,
        "lon": 144.54258329211117,
        "alt_km": 692.0933851715727,
        "timestamp": "2025-12-09T14:52:26.435557+00:00",
        "meta_object_name": "FENGYUN 1C DEB",
        "meta_object_id": "1999-025QR",
        "meta_epoch": "2025-12-08T23:10:29.804736",
        "meta_mean_motion": 14.35894003,
        "meta_eccentricity": 0.0200751,
        "meta_inclination": 98.3539,
        "meta_ra_of_asc_node": 327.3588,
        "meta_arg_of_pericenter": 258.8248,
        "meta_mean_anomaly": 166.0656,
        "meta_ephemeris_type": 0,
        "meta_classification_type": "U",
        "meta_norad_cat_id": 30088,
        "meta_element_set_no": 999,
        "meta_rev_at_epoch": 98618,
        "meta_bstar": 0.00054811,
        "meta_mean_motion_dot": 1.949e-05,
        "meta_mean_motion_ddot": 0,
        "tle_line1": "1 30088U 99025QR  25342.96562274  .00001949  00000+0  54811-3 0  9995",
        "tle_line2": "2 30088  98.3539 327.3588 0200751 258.8248 166.0656 14.35894003986185"
      },
      "geometry": {
        "type": "Point",
        "coordinates": [
          144.54258329211117,
          -22.27406107123358
        ]
      }
    },
    {
      "type": "Feature",
      "properties": {
        "norad_id": 30089,
        "name": "FENGYUN 1C DEB",
        "group": "fengyun-1c-debris",
        "lat": -59.24524576397746,
        "lon": -95.78564885152267,
        "alt_km": 788.7413663164571,
        "timestamp": "2025-12-09T14:52:26.435567+00:00",
        "meta_object_name": "FENGYUN 1C DEB",
        "meta_object_id": "1999-025QS",
        "meta_epoch": "2025-12-09T05:41:13.148736",
        "meta_mean_motion": 14.30298684,
        "meta_eccentricity": 0.00731542,
        "meta_inclination": 98.9031,
        "meta_ra_of_asc_node": 248.5493,
        "meta_arg_of_pericenter": 220.2885,
        "meta_mean_anomaly": 268.5931,
        "meta_ephemeris_type": 0,
        "meta_classification_type": "U",
        "meta_norad_cat_id": 30089,
        "meta_element_set_no": 999,
        "meta_rev_at_epoch": 98429,
        "meta_bstar": 0.0004362426,
        "meta_mean_motion_dot": 1.119e-05,
        "meta_mean_motion_ddot": 0,
        "tle_line1": "1 30089U 99025QS  25343.23695774  .00001119  00000+0  43624-3 0  9998",
        "tle_line2": "2 30089  98.9031 248.5493 0073154 220.2885 268.5931 14.30298684984295"
      },
      "geometry": {
        "type": "Point",
        "coordinates": [
          -95.78564885152267,
          -59.24524576397746
        ]
      }
    }
  ]
}